[{"OBJECT_NAME":"D-STAR ONE (SPARROW)","OBJECT_ID":"2018-111F","EPOCH":"2026-03-09T17:46:18.675552","MEAN_MOTION":15.54846146,"ECCENTRICITY":0.00041297,"INCLINATION":97.6111,"RA_OF_ASC_NODE":1.8771,"ARG_OF_PERICENTER":38.9805,"MEAN_ANOMALY":321.1745,"EPHEMERIS_TYPE":0,"CLASSIFICATION_TYPE":"U","NORAD_CAT_ID":43881,"ELEMENT_SET_NO":999,"REV_AT_EPOCH":39583,"BSTAR":0.0010829564,"MEAN_MOTION_DOT":0.00072664,"MEAN_MOTION_DDOT":0},{"OBJECT_NAME":"STARLINK-1284","OBJECT_ID":"2020-019AG","EPOCH":"2026-03-09T13:11:17.276064","MEAN_MOTION":15.51780095,"ECCENTRICITY":0.0003713,"INCLINATION":53.0484,"RA_OF_ASC_NODE":131.664,"ARG_OF_PERICENTER":17.3458,"MEAN_ANOMALY":342.7677,"EPHEMERIS_TYPE":0,"CLASSIFICATION_TYPE":"U","NORAD_CAT_ID":45390,"ELEMENT_SET_NO":999,"REV_AT_EPOCH":33020,"BSTAR":0.0015497,"MEAN_MOTION_DOT":0.00094801,"MEAN_MOTION_DDOT":0}]
